[{"name":"NAVSTAR 48 (USA 151)","line1":"1 26407U 00040A   26177.27244779  .00000080  00000+0  00000+0 0  9994","line2":"2 26407  54.8504 214.8013 0120911 302.5469  61.1141  2.00557847190135"},{"name":"NAVSTAR 51 (USA 166)","line1":"1 27663U 03005A   26177.15567986  .00000080  00000+0  00000+0 0  9998","line2":"2 27663  54.8811 214.6123 0148006  53.0952   2.3339  2.00560186171495"},{"name":"NAVSTAR 54 (USA 177)","line1":"1 28190U 04009A   26177.37504253 -.00000053  00000+0  00000+0 0  9992","line2":"2 28190  54.8219 275.3158 0116471 173.4943 193.2611  2.00554561163138"},{"name":"NAVSTAR 56 (USA 180)","line1":"1 28474U 04045A   26177.53209161 -.00000105  00000+0  00000+0 0  9993","line2":"2 28474  55.1303 324.5198 0169914 316.6329 228.4813  2.00556458158610"},{"name":"NAVSTAR 57 (USA 183)","line1":"1 28874U 05038A   26177.42321523 -.00000047  00000+0  00000+0 0  9990","line2":"2 28874  54.8704 272.8045 0127987 296.2383 134.3021  2.00565172152026"},{"name":"INMARSAT 4-F2","line1":"1 28899U 05044A   26177.57816975 -.00000254  00000+0  00000+0 0  9990","line2":"2 28899   5.1068  43.6837 0003298  41.0859 181.5625  1.00272050 75612"},{"name":"NAVSTAR 58 (USA 190)","line1":"1 29486U 06042A   26177.46628734  .00000043  00000+0  00000+0 0  9999","line2":"2 29486  54.7118 150.9706 0106773  54.6587 305.6063  2.00569377144577"},{"name":"NAVSTAR 59 (USA 192)","line1":"1 29601U 06052A   26177.39306010  .00000082  00000+0  00000+0 0  9994","line2":"2 29601  54.9344 213.6411 0084629  90.8415 270.2080  2.00558596143594"},{"name":"NAVSTAR 60 (USA 196)","line1":"1 32260U 07047A   26177.19961716 -.00000076  00000+0  00000+0 0  9996","line2":"2 32260  54.1016  79.6941 0167104  87.5760 274.3492  2.00554914136999"},{"name":"COSMOS 2433 [GLONASS-M]","line1":"1 32275U 07052A   26177.30077292 -.00000084  00000+0  00000+0 0  9997","line2":"2 32275  65.5713 315.6262 0002876 196.1254 163.8539  2.13104185145251"},{"name":"COSMOS 2432 [GLONASS-M]","line1":"1 32276U 07052B   26176.85436133 -.00000085  00000+0  00000+0 0  9991","line2":"2 32276  65.5875 315.7691 0007440 328.8615 352.4942  2.13103155145266"},{"name":"NAVSTAR 61 (USA 199)","line1":"1 32384U 07062A   26177.02337119 -.00000053  00000+0  00000+0 0  9991","line2":"2 32384  55.0244 273.7972 0035842 166.2118 194.0389  2.00560714135699"},{"name":"COSMOS 2434 [GLONASS-M]","line1":"1 32393U 07065A   26177.48543221  .00000105  00000+0  00000+0 0  9994","line2":"2 32393  64.3185 191.6023 0001250 327.1544  64.2860  2.13101371143974"},{"name":"COSMOS 2436 [GLONASS-M]","line1":"1 32395U 07065C   26177.50729759  .00000105  00000+0  00000+0 0  9991","line2":"2 32395  64.3272 191.6738 0017278 353.6044 186.8858  2.13100188143920"},{"name":"NAVSTAR 62 (USA 201)","line1":"1 32711U 08012A   26177.11012545  .00000044  00000+0  00000+0 0  9993","line2":"2 32711  54.4985 149.5683 0211415 247.9482 109.7699  2.00572724133936"},{"name":"NAVSTAR 64 (USA 206)","line1":"1 35752U 09043A   26177.34349432 -.00000085  00000+0  00000+0 0  9995","line2":"2 35752  56.2161  27.0922 0053802  83.5927  94.0235  2.00553956123542"},{"name":"COSMOS 2456 [GLONASS-M]","line1":"1 36111U 09070A   26176.78374925 -.00000065  00000+0  00000+0 0  9995","line2":"2 36111  65.0164  70.6784 0004249 334.9853  36.3390  2.13103651128616"},{"name":"COSMOS 2457 [GLONASS-M]","line1":"1 36112U 09070B   26174.95633448 -.00000070  00000+0  00000+0 0  9997","line2":"2 36112  65.0012  70.5847 0003066 122.1178  54.6156  2.13101046128575"},{"name":"COSMOS 2460 [GLONASS-M]","line1":"1 36402U 10007C   26177.27951547 -.00000085  00000+0  00000+0 0  9998","line2":"2 36402  65.4147 314.1582 0002021 121.6586  39.2894  2.13101756126923"},{"name":"NAVSTAR 65 (USA 213)","line1":"1 36585U 10022A   26177.37049338  .00000086  00000+0  00000+0 0  9994","line2":"2 36585  54.2697 208.1920 0126418  66.1257 250.0099  2.00562964117775"},{"name":"BEIDOU-2 IGSO-1","line1":"1 36828U 10036A   26176.90245100 -.00000051  00000+0  00000+0 0  9995","line2":"2 36828  54.3048 162.8805 0059011 225.3330 318.2636  1.00269992 58186"},{"name":"BEIDOU-2 G4","line1":"1 37210U 10057A   26177.62604779 -.00000105  00000+0  00000+0 0  9995","line2":"2 37210   3.6706  68.8985 0004796 192.9286  38.2799  1.00271498 57387"},{"name":"BEIDOU-2 IGSO-2","line1":"1 37256U 10068A   26175.67652892 -.00000223  00000+0  00000+0 0  9990","line2":"2 37256  47.5326 271.7373 0056042 213.3814 139.3528  1.00281062 56867"},{"name":"BEIDOU-2 IGSO-3","line1":"1 37384U 11013A   26176.54644699 -.00000187  00000+0  00000+0 0  9995","line2":"2 37384  62.4191  40.0714 0035057 184.1159 353.6243  1.00266124 55744"},{"name":"GSAT-8","line1":"1 37605U 11022A   26177.67659355  .00000094  00000+0  00000+0 0  9997","line2":"2 37605   2.1554  81.7182 0001639 185.2967 306.4261  1.00273017 53319"},{"name":"BEIDOU-2 IGSO-4","line1":"1 37763U 11038A   26176.93636431  .00000029  00000+0  00000+0 0  9995","line2":"2 37763  54.6029 165.5946 0159584 231.4886 307.8251  1.00284248 54738"},{"name":"GSAT0101 (GALILEO-PFM)","line1":"1 37846U 11060A   26177.23375950 -.00000096  00000+0  00000+0 0  9997","line2":"2 37846  56.9911 341.5158 0002837  55.8370 304.1849  1.70475865 91277"},{"name":"GSAT0102 (GALILEO-FM2)","line1":"1 37847U 11060B   26176.58449965 -.00000097  00000+0  00000+0 0  9994","line2":"2 37847  56.9921 341.5338 0002831  14.5912 352.5946  1.70476098 91271"},{"name":"COSMOS 2476 [GLONASS-M]","line1":"1 37867U 11064A   26173.36699142 -.00000061  00000+0  00000+0 0  9998","line2":"2 37867  65.2731  72.6963 0022606 238.5611 299.8582  2.13103651113877"},{"name":"COSMOS 2477 [GLONASS-M]","line1":"1 37868U 11064B   26177.23957569 -.00000061  00000+0  00000+0 0  9999","line2":"2 37868  65.2817  72.6450 0019452 239.0391 210.6205  2.13102922113952"},{"name":"COSMOS 2475 [GLONASS-M]","line1":"1 37869U 11064C   26177.41892963 -.00000060  00000+0  00000+0 0  9995","line2":"2 37869  65.2886  72.6605 0025307 252.6245 289.7157  2.13101877113968"}]